{
  "type": "FeatureCollection",
  "features": [
    {
      "type": "Feature",
      "properties": {
        "name": "Pakistan Region"
      },
      "geometry": {
        "type": "Polygon",
        "coordinates": [
          [
            [60, 23],
            [77, 23],
            [77, 37],
            [60, 37],
            [60, 23]
          ]
        ]
      }
    },
    {
      "type": "Feature",
      "properties": {
        "name": "India Region"
      },
      "geometry": {
        "type": "Polygon",
        "coordinates": [
          [
            [68, 8],
            [97, 8],
            [97, 37],
            [68, 37],
            [68, 8]
          ]
        ]
      }
    }
  ]
}
